COSMOS 2433 (720)       
1 32275U 07052A   25074.45048187 -.00000062  00000+0  00000+0 0  9995
2 32275  65.8195 331.3317 0002055 283.3535  76.6799  2.13104088135287
COSMOS 2432 (719)       
1 32276U 07052B   25076.16888205 -.00000062  00000+0  00000+0 0  9999
2 32276  65.8340 331.3932 0010848 332.5383 211.1868  2.13103332135352
COSMOS 2434 (721)       
1 32393U 07065A   25076.47675653  .00000030  00000+0  00000+0 0  9992
2 32393  64.3172 207.3260 0003536  73.3505 292.8651  2.13101435134040
COSMOS 2436 (723)       
1 32395U 07065C   25075.84172782  .00000024  00000+0  00000+0 0  9992
2 32395  64.3258 207.4149 0017041   5.7978   7.4848  2.13100306133989
COSMOS 2456 (730)       
1 36111U 09070A   25076.39171558  .00000022  00000+0  00000+0 0  9999
2 36111  64.7490  86.5862 0006414 304.3208 151.9702  2.13103754118690
COSMOS 2457 (733)       
1 36112U 09070B   25075.62338514  .00000022  00000+0  00000+0 0  9992
2 36112  64.7335  86.4654 0002679 200.6813 157.7987  2.13101194118679
COSMOS 2460 (732)       
1 36402U 10007C   25074.40469765 -.00000061  00000+0  00000+0 0  9998
2 36402  65.6705 329.9507 0002112  14.1937 124.8646  2.13106272116959
COSMOS 2476 (744)       
1 37867U 11064A   25076.62561466  .00000025  00000+0  00000+0 0  9994
2 37867  65.0166  88.3142 0024802 241.5654 304.7844  2.13101639104030
COSMOS 2477 (745)       
1 37868U 11064B   25076.24612098  .00000025  00000+0  00000+0 0  9991
2 37868  65.0231  88.4021 0021996 243.1411 191.5700  2.13103093104029
COSMOS 2475 (743)       
1 37869U 11064C   25076.29096619  .00000025  00000+0  00000+0 0  9992
2 37869  65.0301  88.4181 0027528 255.5373 170.7236  2.13101799104031
COSMOS 2485 (747)       
1 39155U 13019A   25076.32289758  .00000026  00000+0  00000+0 0  9997
2 39155  65.1712  88.9651 0025064 237.6276 122.1675  2.13104556 92545
COSMOS 2492 (754)       
1 39620U 14012A   25074.40233680 -.00000060  00000+0  00000+0 0  9997
2 39620  65.5503 329.4883 0013609 327.3577  32.6162  2.13103303 85465
COSMOS 2500 (755)       
1 40001U 14032A   25075.98586920 -.00000060  00000+0  00000+0 0  9996
2 40001  65.4859 329.2185 0004699 203.3521 156.6850  2.13106122 83716
COSMOS 2501 (702K)      
1 40315U 14075A   25076.24205349  .00000027  00000+0  00000+0 0  9996
2 40315  63.6174 206.1951 0019972 205.8785 153.9982  2.13101419 80118
COSMOS 2514 (751)       
1 41330U 16008A   25076.22554740 -.00000059  00000+0  00000+0 0  9998
2 41330  65.2784 328.6506 0008683 212.2729 147.7325  2.13102733 70889
COSMOS 2522 (752)       
1 42939U 17055A   25076.53389563  .00000030  00000+0  00000+0 0  9998
2 42939  64.0789 207.4327 0007110 230.5588 129.3547  2.13101871 58242
COSMOS 2527 (756)       
1 43508U 18053A   25076.02452266  .00000026  00000+0  00000+0 0  9990
2 43508  65.3300  89.1840 0009764 245.4314 114.5062  2.13102359 52538
COSMOS 2529 (757)       
1 43687U 18086A   25076.12276660  .00000027  00000+0  00000+0 0  9998
2 43687  64.2947 208.0329 0008073 257.1324 102.7511  2.13102084 49548
COSMOS 2534 (758)       
1 44299U 19030A   25075.47505299  .00000020  00000+0  00000+0 0  9991
2 44299  64.3678 208.0338 0009952 283.5552  73.6984  2.13102402 45161
COSMOS 2544 (759)       
1 44850U 19088A   25076.43808601  .00000026  00000+0  00000+0 0  9993
2 44850  65.3174  89.0020 0015660 260.8903  98.9701  2.13102135 40987
COSMOS 2545 (760)       
1 45358U 20018A   25076.16552434 -.00000060  00000+0  00000+0 0  9991
2 45358  64.6166 328.4404 0008001 254.2011 105.7690  2.13102598 38926
COSMOS 2547 (705K)      
1 46805U 20075A   25075.41268319  .00000020  00000+0  00000+0 0  9990
2 46805  64.5977 207.7585 0006670 233.2601 126.6490  2.13103082 34154
COSMOS 2557 (706K)      
1 52984U 22075A   25076.04907363 -.00000063  00000+0  00000+0 0  9994
2 52984  64.5508 330.5494 0011852 285.8157  74.1107  2.13101960 20969
COSMOS 2559 (707K)      
1 54031U 22130A   25075.05425789 -.00000064  00000+0  00000+0 0  9999
2 54031  64.5235 330.6925 0005415 230.1248 129.8840  2.13101382 18926
COSMOS 2564 (761)       
1 54377U 22161A   25075.71278365  .00000023  00000+0  00000+0 0  9999
2 54377  64.7394 207.9022 0008969 210.9299 148.9892  2.13102050 17886
COSMOS 2569 (703K)      
1 57517U 23114A   25076.19726926  .00000024  00000+0  00000+0 0  9992
2 57517  65.0480  88.0610 0012925 293.0861  66.8145  2.13104124 12529
